STARLINK-4021           
1 53149U 22083T   26067.53209233 -.00000398  00000+0 -69380-5 0  9997
2 53149  53.2185 169.5206 0001508  90.2904 269.8261 15.08834383201184
STARLINK-4038           
1 53150U 22083U   26067.50002314  .00375974  66561-4  98625-3 0  9991
2 53150  53.2034 126.2431 0009739   7.9218 311.4876 15.94266150  5933
STARLINK-4040           
1 53151U 22083V   26067.54214414  .00000270  00000+0  35070-4 0  9993
2 53151  53.2173 169.2756 0001446  85.1078 275.0079 15.08840693201184
STARLINK-4045           
1 53152U 22083W   26067.54950073  .00000447  00000+0  46195-4 0  9998
2 53152  53.2162 169.2411 0001440  91.5716 268.5441 15.08839372201187
STARLINK-4098           
1 53153U 22083X   26067.53846653 -.00001449  00000+0 -72975-4 0  9996
2 53153  53.2182 169.2913 0001319  84.9027 275.2116 15.08844501201187
STARLINK-4077           
1 53154U 22083Y   26067.54582882 -.00000410  00000+0 -76855-5 0  9998
2 53154  53.2158 169.2529 0001701 102.5255 257.5928 15.08841221201189
STARLINK-4088           
1 53155U 22083Z   26067.53111156 -.00001127  00000+0 -52741-4 0  9993
2 53155  53.2180 169.3210 0001608  92.8724 267.2452 15.08835984201821
STARLINK-4087           
1 53156U 22083AA  26067.52005438  .00000269  00000+0  35017-4 0  9999
2 53156  53.2169 169.2462 0001154  86.7528 273.3596 15.08838102201188
STARLINK-4054           
1 53158U 22083AC  26067.53481542  .00033874  00000+0  21448-2 0  9995
2 53158  53.2173 169.3014 0001897 104.1369 255.9834 15.08692675201185
STARLINK-4111           
1 53159U 22083AD  26067.51638940  .00000482  00000+0  48392-4 0  9998
2 53159  53.2180 169.3904 0001480  94.6400 265.4762 15.08836154201187
STARLINK-4096           
1 53160U 22083AE  26067.52743298  .00000118  00000+0  25494-4 0  9998
2 53160  53.2185 169.3391 0001481  88.1591 271.9571 15.08832551201181
STARLINK-4055           
1 53161U 22083AF  26067.50534440  .00000387  00000+0  42408-4 0  9996
2 53161  53.2161 169.4389 0001293  90.3049 269.8092 15.08838381201189
STARLINK-4114           
1 53162U 22083AG  26067.52101011  .00000363  00000+0  40907-4 0  9999
2 53162  53.2163 169.3763 0001270  86.2989 273.8148 15.08847506201185
STARLINK-4104           
1 53163U 22083AH  26067.51271979  .00000594  00000+0  55425-4 0  9997
2 53163  53.2175 169.5461 0001468 105.6955 254.4199 15.08840258201182
STARLINK-4116           
1 53164U 22083AJ  26067.50903082  .00001872  00000+0  13564-3 0  9991
2 53164  53.2183 169.4213 0000934  86.4176 273.6923 15.08839572201189
STARLINK-4090           
1 53165U 22083AK  26067.49431114 -.00001738  00000+0 -91112-4 0  9991
2 53165  53.2171 169.4883 0001323  83.7120 276.4023 15.08844467201183
STARLINK-4110           
1 53166U 22083AL  26067.49157034 -.00000821  00000+0 -33536-4 0  9996
2 53166  53.2167 169.3993 0000980  97.1569 262.9535 15.08838011201180
