[{"OBJECT_NAME":"STARLINK-4021","OBJECT_ID":"2022-083T","EPOCH":"2026-03-08T12:46:12.777312","MEAN_MOTION":15.08834383,"ECCENTRICITY":0.0001508,"INCLINATION":53.2185,"RA_OF_ASC_NODE":169.5206,"ARG_OF_PERICENTER":90.2904,"MEAN_ANOMALY":269.8261,"EPHEMERIS_TYPE":0,"CLASSIFICATION_TYPE":"U","NORAD_CAT_ID":53149,"ELEMENT_SET_NO":999,"REV_AT_EPOCH":20118,"BSTAR":-6.938e-6,"MEAN_MOTION_DOT":-3.98e-6,"MEAN_MOTION_DDOT":0},{"OBJECT_NAME":"STARLINK-4038","OBJECT_ID":"2022-083U","EPOCH":"2026-03-08T12:00:01.999296","MEAN_MOTION":15.9426615,"ECCENTRICITY":0.0009739,"INCLINATION":53.2034,"RA_OF_ASC_NODE":126.2431,"ARG_OF_PERICENTER":7.9218,"MEAN_ANOMALY":311.4876,"EPHEMERIS_TYPE":0,"CLASSIFICATION_TYPE":"U","NORAD_CAT_ID":53150,"ELEMENT_SET_NO":999,"REV_AT_EPOCH":593,"BSTAR":0.00098625,"MEAN_MOTION_DOT":0.00375974,"MEAN_MOTION_DDOT":6.6561e-5},{"OBJECT_NAME":"STARLINK-4040","OBJECT_ID":"2022-083V","EPOCH":"2026-03-08T13:00:41.253696","MEAN_MOTION":15.08840693,"ECCENTRICITY":0.0001446,"INCLINATION":53.2173,"RA_OF_ASC_NODE":169.2756,"ARG_OF_PERICENTER":85.1078,"MEAN_ANOMALY":275.0079,"EPHEMERIS_TYPE":0,"CLASSIFICATION_TYPE":"U","NORAD_CAT_ID":53151,"ELEMENT_SET_NO":999,"REV_AT_EPOCH":20118,"BSTAR":3.507e-5,"MEAN_MOTION_DOT":2.7e-6,"MEAN_MOTION_DDOT":0},{"OBJECT_NAME":"STARLINK-4045","OBJECT_ID":"2022-083W","EPOCH":"2026-03-08T13:11:16.863072","MEAN_MOTION":15.08839372,"ECCENTRICITY":0.000144,"INCLINATION":53.2162,"RA_OF_ASC_NODE":169.2411,"ARG_OF_PERICENTER":91.5716,"MEAN_ANOMALY":268.5441,"EPHEMERIS_TYPE":0,"CLASSIFICATION_TYPE":"U","NORAD_CAT_ID":53152,"ELEMENT_SET_NO":999,"REV_AT_EPOCH":20118,"BSTAR":4.6195e-5,"MEAN_MOTION_DOT":4.47e-6,"MEAN_MOTION_DDOT":0},{"OBJECT_NAME":"STARLINK-4098","OBJECT_ID":"2022-083X","EPOCH":"2026-03-08T12:55:23.508192","MEAN_MOTION":15.08844501,"ECCENTRICITY":0.0001319,"INCLINATION":53.2182,"RA_OF_ASC_NODE":169.2913,"ARG_OF_PERICENTER":84.9027,"MEAN_ANOMALY":275.2116,"EPHEMERIS_TYPE":0,"CLASSIFICATION_TYPE":"U","NORAD_CAT_ID":53153,"ELEMENT_SET_NO":999,"REV_AT_EPOCH":20118,"BSTAR":-7.2975e-5,"MEAN_MOTION_DOT":-1.449e-5,"MEAN_MOTION_DDOT":0},{"OBJECT_NAME":"STARLINK-4077","OBJECT_ID":"2022-083Y","EPOCH":"2026-03-08T13:05:59.610048","MEAN_MOTION":15.08841221,"ECCENTRICITY":0.0001701,"INCLINATION":53.2158,"RA_OF_ASC_NODE":169.2529,"ARG_OF_PERICENTER":102.5255,"MEAN_ANOMALY":257.5928,"EPHEMERIS_TYPE":0,"CLASSIFICATION_TYPE":"U","NORAD_CAT_ID":53154,"ELEMENT_SET_NO":999,"REV_AT_EPOCH":20118,"BSTAR":-7.6855e-6,"MEAN_MOTION_DOT":-4.1e-6,"MEAN_MOTION_DDOT":0},{"OBJECT_NAME":"STARLINK-4088","OBJECT_ID":"2022-083Z","EPOCH":"2026-03-08T12:44:48.038784","MEAN_MOTION":15.08835984,"ECCENTRICITY":0.0001608,"INCLINATION":53.218,"RA_OF_ASC_NODE":169.321,"ARG_OF_PERICENTER":92.8724,"MEAN_ANOMALY":267.2452,"EPHEMERIS_TYPE":0,"CLASSIFICATION_TYPE":"U","NORAD_CAT_ID":53155,"ELEMENT_SET_NO":999,"REV_AT_EPOCH":20182,"BSTAR":-5.2741e-5,"MEAN_MOTION_DOT":-1.127e-5,"MEAN_MOTION_DDOT":0},{"OBJECT_NAME":"STARLINK-4087","OBJECT_ID":"2022-083AA","EPOCH":"2026-03-08T12:28:52.698432","MEAN_MOTION":15.08838102,"ECCENTRICITY":0.0001154,"INCLINATION":53.2169,"RA_OF_ASC_NODE":169.2462,"ARG_OF_PERICENTER":86.7528,"MEAN_ANOMALY":273.3596,"EPHEMERIS_TYPE":0,"CLASSIFICATION_TYPE":"U","NORAD_CAT_ID":53156,"ELEMENT_SET_NO":999,"REV_AT_EPOCH":20118,"BSTAR":3.5017e-5,"MEAN_MOTION_DOT":2.69e-6,"MEAN_MOTION_DDOT":0},{"OBJECT_NAME":"STARLINK-4054","OBJECT_ID":"2022-083AC","EPOCH":"2026-03-08T12:50:08.052288","MEAN_MOTION":15.08692675,"ECCENTRICITY":0.0001897,"INCLINATION":53.2173,"RA_OF_ASC_NODE":169.3014,"ARG_OF_PERICENTER":104.1369,"MEAN_ANOMALY":255.9834,"EPHEMERIS_TYPE":0,"CLASSIFICATION_TYPE":"U","NORAD_CAT_ID":53158,"ELEMENT_SET_NO":999,"REV_AT_EPOCH":20118,"BSTAR":0.0021448,"MEAN_MOTION_DOT":0.00033874,"MEAN_MOTION_DDOT":0},{"OBJECT_NAME":"STARLINK-4111","OBJECT_ID":"2022-083AD","EPOCH":"2026-03-08T12:23:36.044160","MEAN_MOTION":15.08836154,"ECCENTRICITY":0.000148,"INCLINATION":53.218,"RA_OF_ASC_NODE":169.3904,"ARG_OF_PERICENTER":94.64,"MEAN_ANOMALY":265.4762,"EPHEMERIS_TYPE":0,"CLASSIFICATION_TYPE":"U","NORAD_CAT_ID":53159,"ELEMENT_SET_NO":999,"REV_AT_EPOCH":20118,"BSTAR":4.8392e-5,"MEAN_MOTION_DOT":4.82e-6,"MEAN_MOTION_DDOT":0},{"OBJECT_NAME":"STARLINK-4096","OBJECT_ID":"2022-083AE","EPOCH":"2026-03-08T12:39:30.209472","MEAN_MOTION":15.08832551,"ECCENTRICITY":0.0001481,"INCLINATION":53.2185,"RA_OF_ASC_NODE":169.3391,"ARG_OF_PERICENTER":88.1591,"MEAN_ANOMALY":271.9571,"EPHEMERIS_TYPE":0,"CLASSIFICATION_TYPE":"U","NORAD_CAT_ID":53160,"ELEMENT_SET_NO":999,"REV_AT_EPOCH":20118,"BSTAR":2.5494e-5,"MEAN_MOTION_DOT":1.18e-6,"MEAN_MOTION_DDOT":0},{"OBJECT_NAME":"STARLINK-4055","OBJECT_ID":"2022-083AF","EPOCH":"2026-03-08T12:07:41.756160","MEAN_MOTION":15.08838381,"ECCENTRICITY":0.0001293,"INCLINATION":53.2161,"RA_OF_ASC_NODE":169.4389,"ARG_OF_PERICENTER":90.3049,"MEAN_ANOMALY":269.8092,"EPHEMERIS_TYPE":0,"CLASSIFICATION_TYPE":"U","NORAD_CAT_ID":53161,"ELEMENT_SET_NO":999,"REV_AT_EPOCH":20118,"BSTAR":4.2408e-5,"MEAN_MOTION_DOT":3.87e-6,"MEAN_MOTION_DDOT":0},{"OBJECT_NAME":"STARLINK-4114","OBJECT_ID":"2022-083AG","EPOCH":"2026-03-08T12:30:15.273504","MEAN_MOTION":15.08847506,"ECCENTRICITY":0.000127,"INCLINATION":53.2163,"RA_OF_ASC_NODE":169.3763,"ARG_OF_PERICENTER":86.2989,"MEAN_ANOMALY":273.8148,"EPHEMERIS_TYPE":0,"CLASSIFICATION_TYPE":"U","NORAD_CAT_ID":53162,"ELEMENT_SET_NO":999,"REV_AT_EPOCH":20118,"BSTAR":4.0907e-5,"MEAN_MOTION_DOT":3.63e-6,"MEAN_MOTION_DDOT":0},{"OBJECT_NAME":"STARLINK-4104","OBJECT_ID":"2022-083AH","EPOCH":"2026-03-08T12:18:18.989856","MEAN_MOTION":15.08840258,"ECCENTRICITY":0.0001468,"INCLINATION":53.2175,"RA_OF_ASC_NODE":169.5461,"ARG_OF_PERICENTER":105.6955,"MEAN_ANOMALY":254.4199,"EPHEMERIS_TYPE":0,"CLASSIFICATION_TYPE":"U","NORAD_CAT_ID":53163,"ELEMENT_SET_NO":999,"REV_AT_EPOCH":20118,"BSTAR":5.5425e-5,"MEAN_MOTION_DOT":5.94e-6,"MEAN_MOTION_DDOT":0},{"OBJECT_NAME":"STARLINK-4116","OBJECT_ID":"2022-083AJ","EPOCH":"2026-03-08T12:13:00.262848","MEAN_MOTION":15.08839572,"ECCENTRICITY":9.34e-5,"INCLINATION":53.2183,"RA_OF_ASC_NODE":169.4213,"ARG_OF_PERICENTER":86.4176,"MEAN_ANOMALY":273.6923,"EPHEMERIS_TYPE":0,"CLASSIFICATION_TYPE":"U","NORAD_CAT_ID":53164,"ELEMENT_SET_NO":999,"REV_AT_EPOCH":20118,"BSTAR":0.00013564,"MEAN_MOTION_DOT":1.872e-5,"MEAN_MOTION_DDOT":0},{"OBJECT_NAME":"STARLINK-4090","OBJECT_ID":"2022-083AK","EPOCH":"2026-03-08T11:51:48.482496","MEAN_MOTION":15.08844467,"ECCENTRICITY":0.0001323,"INCLINATION":53.2171,"RA_OF_ASC_NODE":169.4883,"ARG_OF_PERICENTER":83.712,"MEAN_ANOMALY":276.4023,"EPHEMERIS_TYPE":0,"CLASSIFICATION_TYPE":"U","NORAD_CAT_ID":53165,"ELEMENT_SET_NO":999,"REV_AT_EPOCH":20118,"BSTAR":-9.1112e-5,"MEAN_MOTION_DOT":-1.738e-5,"MEAN_MOTION_DDOT":0},{"OBJECT_NAME":"STARLINK-4110","OBJECT_ID":"2022-083AL","EPOCH":"2026-03-08T11:47:51.677376","MEAN_MOTION":15.08838011,"ECCENTRICITY":9.8e-5,"INCLINATION":53.2167,"RA_OF_ASC_NODE":169.3993,"ARG_OF_PERICENTER":97.1569,"MEAN_ANOMALY":262.9535,"EPHEMERIS_TYPE":0,"CLASSIFICATION_TYPE":"U","NORAD_CAT_ID":53166,"ELEMENT_SET_NO":999,"REV_AT_EPOCH":20118,"BSTAR":-3.3536e-5,"MEAN_MOTION_DOT":-8.21e-6,"MEAN_MOTION_DDOT":0}]
